GLOBALSTAR M075 [+]     
1 37192U 10054E   23331.57729469 -.00000112  00000+0 -45290-4 0  9992
2 37192  51.9933 109.7853 0001034 106.8137 332.9371 12.62267792604328
GLOBALSTAR M073 [+]     
1 37193U 10054F   23331.33931244 -.00000072  00000+0  17922-3 0  9997
2 37193  52.0086  23.8945 0000472 125.2485 314.4495 12.62269688606122
GLOBALSTAR M083 [+]     
1 37739U 11033A   23331.19388681 -.00000085  00000+0  10598-3 0  9992
2 37739  51.9878 333.8449 0000556  66.5173  12.8948 12.62263216575120
GLOBALSTAR M088 [+]     
1 37740U 11033B   23331.18634250 -.00000070  00000+0  19002-3 0  9992
2 37740  51.9730 239.8376 0001149  70.1582  94.6806 12.62267880570663
GLOBALSTAR M091 [+]     
1 37741U 11033C   23331.12065608 -.00000057  00000+0  26063-3 0  9992
2 37741  51.9983 202.5779 0001378  79.3416  86.0609 12.62269008571446
GLOBALSTAR M085 [+]     
1 37742U 11033D   23331.03098042 -.00000084  00000+0  10811-3 0  9995
2 37742  51.9837 154.3910 0001341  91.9659  86.0789 12.62265573571942
GLOBALSTAR M081 [+]     
1 37743U 11033E   23331.49726973 -.00000076  00000+0  15415-3 0  9993
2 37743  51.9928 155.4077 0001413  99.3055 278.7201 12.62267472572155
GLOBALSTAR M089 [+]     
1 37744U 11033F   23331.54976785 -.00000121  00000+0 -94999-4 0  9995
2 37744  51.9911 109.5794 0000895 125.2863 311.6067 12.62269792573002
